[
    {
        "Altitude(m)": 706529.8344403225,
        "Argument of Periapsis(deg)": 0.004556048474650827,
        "Eccentricity": 0.0,
        "Inclination(deg)": 45.0,
        "Latitude(deg)": -14.80260303222109,
        "Longitude(deg)": 149.94760293623668,
        "Mean Anomaly(deg)": 200.97688665899233,
        "RAAN(deg)": 54.99569922341672,
        "Satellite Name": "Constellation 1 254",
        "Satellite Number": 254,
        "Semi-Major Axis(m)": 7083131.272910544,
        "Time(s)": 76
    },
    {
        "Altitude(m)": 706541.5911420975,
        "Argument of Periapsis(deg)": 0.004615996480896233,
        "Eccentricity": 0.0,
        "Inclination(deg)": 45.0,
        "Latitude(deg)": -14.844238100109838,
        "Longitude(deg)": 149.98929997881677,
        "Mean Anomaly(deg)": 201.03758779924217,
        "RAAN(deg)": 54.99564263425115,
        "Satellite Name": "Constellation 1 254",
        "Satellite Number": 254,
        "Semi-Major Axis(m)": 7083131.272910544,
        "Time(s)": 77
    },
    {
        "Altitude(m)": 706553.36091698,
        "Argument of Periapsis(deg)": 0.004675944487141638,
        "Eccentricity": 0.0,
        "Inclination(deg)": 45.0,
        "Latitude(deg)": -14.885863797064495,
        "Longitude(deg)": 150.03101444138275,
        "Mean Anomaly(deg)": 201.0982889394922,
        "RAAN(deg)": 54.99558604508558,
        "Satellite Name": "Constellation 1 254",
        "Satellite Number": 254,
        "Semi-Major Axis(m)": 7083131.272910544,
        "Time(s)": 78
    },
    {
        "Altitude(m)": 706565.1437294536,
        "Argument of Periapsis(deg)": 0.004735892493387044,
        "Eccentricity": 0.0,
        "Inclination(deg)": 45.0,
        "Latitude(deg)": -14.927480092545911,
        "Longitude(deg)": 150.07274637803428,
        "Mean Anomaly(deg)": 201.15899007974198,
        "RAAN(deg)": 54.99552945592001,
        "Satellite Name": "Constellation 1 254",
        "Satellite Number": 254,
        "Semi-Major Axis(m)": 7083131.272910544,
        "Time(s)": 79
    },
    {
        "Altitude(m)": 706576.9395439243,
        "Argument of Periapsis(deg)": 0.004795840499632449,
        "Eccentricity": 0.0,
        "Inclination(deg)": 45.0,
        "Latitude(deg)": -14.969086955981798,
        "Longitude(deg)": 150.11449584290128,
        "Mean Anomaly(deg)": 201.21969121999192,
        "RAAN(deg)": 54.99547286675445,
        "Satellite Name": "Constellation 1 254",
        "Satellite Number": 254,
        "Semi-Major Axis(m)": 7083131.272910544,
        "Time(s)": 80
    },
    {
        "Altitude(m)": 706588.7483247487,
        "Argument of Periapsis(deg)": 0.004855788505877855,
        "Eccentricity": 0.0,
        "Inclination(deg)": 45.0,
        "Latitude(deg)": -15.010684356765793,
        "Longitude(deg)": 150.15626289014284,
        "Mean Anomaly(deg)": 201.28039236024173,
        "RAAN(deg)": 54.99541627758887,
        "Satellite Name": "Constellation 1 254",
        "Satellite Number": 254,
        "Semi-Major Axis(m)": 7083131.272910544,
        "Time(s)": 81
    },
    {
        "Altitude(m)": 706600.570036204,
        "Argument of Periapsis(deg)": 0.00491573651212326,
        "Eccentricity": 0.0,
        "Inclination(deg)": 45.0,
        "Latitude(deg)": -15.052272264257525,
        "Longitude(deg)": 150.19804740585096,
        "Mean Anomaly(deg)": 201.34109350049172,
        "RAAN(deg)": 54.99535968842331,
        "Satellite Name": "Constellation 1 254",
        "Satellite Number": 254,
        "Semi-Major Axis(m)": 7083131.272910544,
        "Time(s)": 82
    },
    {
        "Altitude(m)": 706612.4046425092,
        "Argument of Periapsis(deg)": 0.004975684518368666,
        "Eccentricity": 0.0,
        "Inclination(deg)": 45.0,
        "Latitude(deg)": -15.093850647783313,
        "Longitude(deg)": 150.23984978043794,
        "Mean Anomaly(deg)": 201.4017946407416,
        "RAAN(deg)": 54.99530309925773,
        "Satellite Name": "Constellation 1 254",
        "Satellite Number": 254,
        "Semi-Major Axis(m)": 7083131.272910544,
        "Time(s)": 83
    },
    {
        "Altitude(m)": 706624.2521078145,
        "Argument of Periapsis(deg)": 0.005035632524614072,
        "Eccentricity": 0.0,
        "Inclination(deg)": 45.0,
        "Latitude(deg)": -15.135419476634505,
        "Longitude(deg)": 150.28166990005485,
        "Mean Anomaly(deg)": 201.4624957809915,
        "RAAN(deg)": 54.99524651009216,
        "Satellite Name": "Constellation 1 254",
        "Satellite Number": 254,
        "Semi-Major Axis(m)": 7083131.272910544,
        "Time(s)": 84
    },
    {
        "Altitude(m)": 706636.1123962112,
        "Argument of Periapsis(deg)": 0.0050955805308594785,
        "Eccentricity": 0.0,
        "Inclination(deg)": 45.0,
        "Latitude(deg)": -15.176978720068684,
        "Longitude(deg)": 150.32350781897955,
        "Mean Anomaly(deg)": 201.52319692124146,
        "RAAN(deg)": 54.995189920926585,
        "Satellite Name": "Constellation 1 254",
        "Satellite Number": 254,
        "Semi-Major Axis(m)": 7083131.272910544,
        "Time(s)": 85
    },
    {
        "Altitude(m)": 706647.9854717155,
        "Argument of Periapsis(deg)": 0.005155528537104883,
        "Eccentricity": 0.0,
        "Inclination(deg)": 45.0,
        "Latitude(deg)": -15.218528347308693,
        "Longitude(deg)": 150.36536359151924,
        "Mean Anomaly(deg)": 201.58389806149137,
        "RAAN(deg)": 54.995133331761025,
        "Satellite Name": "Constellation 1 254",
        "Satellite Number": 254,
        "Semi-Major Axis(m)": 7083131.272910544,
        "Time(s)": 86
    },
    {
        "Altitude(m)": 706659.8712982885,
        "Argument of Periapsis(deg)": 0.0052154765433502885,
        "Eccentricity": 0.0,
        "Inclination(deg)": 45.0,
        "Latitude(deg)": -15.260068327543324,
        "Longitude(deg)": 150.40723727201123,
        "Mean Anomaly(deg)": 201.6445992017412,
        "RAAN(deg)": 54.99507674259545,
        "Satellite Name": "Constellation 1 254",
        "Satellite Number": 254,
        "Semi-Major Axis(m)": 7083131.272910544,
        "Time(s)": 87
    },
    {
        "Altitude(m)": 706671.7698398237,
        "Argument of Periapsis(deg)": 0.005275424549595694,
        "Eccentricity": 0.0,
        "Inclination(deg)": 45.0,
        "Latitude(deg)": -15.30159862992662,
        "Longitude(deg)": 150.44912891482244,
        "Mean Anomaly(deg)": 201.70530034199106,
        "RAAN(deg)": 54.995020153429884,
        "Satellite Name": "Constellation 1 254",
        "Satellite Number": 254,
        "Semi-Major Axis(m)": 7083131.272910544,
        "Time(s)": 88
    },
    {
        "Altitude(m)": 706683.6810601538,
        "Argument of Periapsis(deg)": 0.0053353725558411,
        "Eccentricity": 0.0,
        "Inclination(deg)": 45.0,
        "Latitude(deg)": -15.343119223577828,
        "Longitude(deg)": 150.4910384062525,
        "Mean Anomaly(deg)": 201.76600148224105,
        "RAAN(deg)": 54.99496356426431,
        "Satellite Name": "Constellation 1 254",
        "Satellite Number": 254,
        "Semi-Major Axis(m)": 7083131.272910544,
        "Time(s)": 89
    },
    {
        "Altitude(m)": 706695.6049230321,
        "Argument of Periapsis(deg)": 0.005395320562086505,
        "Eccentricity": 0.0,
        "Inclination(deg)": 45.0,
        "Latitude(deg)": -15.384630077581846,
        "Longitude(deg)": 150.53296613692186,
        "Mean Anomaly(deg)": 201.82670262249093,
        "RAAN(deg)": 54.99490697509875,
        "Satellite Name": "Constellation 1 254",
        "Satellite Number": 254,
        "Semi-Major Axis(m)": 7083131.272910544,
        "Time(s)": 90
    },
    {
        "Altitude(m)": 706707.5413921706,
        "Argument of Periapsis(deg)": 0.00545526856833191,
        "Eccentricity": 0.0,
        "Inclination(deg)": 45.0,
        "Latitude(deg)": -15.426131160988257,
        "Longitude(deg)": 150.57491199318986,
        "Mean Anomaly(deg)": 201.88740376274077,
        "RAAN(deg)": 54.99485038593318,
        "Satellite Name": "Constellation 1 254",
        "Satellite Number": 254,
        "Semi-Major Axis(m)": 7083131.272910544,
        "Time(s)": 91
    },
    {
        "Altitude(m)": 706719.490431201,
        "Argument of Periapsis(deg)": 0.005515216574577317,
        "Eccentricity": 0.0,
        "Inclination(deg)": 45.0,
        "Latitude(deg)": -15.467622442811791,
        "Longitude(deg)": 150.61687602954265,
        "Mean Anomaly(deg)": 201.94810490299076,
        "RAAN(deg)": 54.99479379676761,
        "Satellite Name": "Constellation 1 254",
        "Satellite Number": 254,
        "Semi-Major Axis(m)": 7083131.272910544,
        "Time(s)": 92
    },
    {
        "Altitude(m)": 706731.4520037036,
        "Argument of Periapsis(deg)": 0.005575164580822722,
        "Eccentricity": 0.0,
        "Inclination(deg)": 45.0,
        "Latitude(deg)": -15.509103892031929,
        "Longitude(deg)": 150.65885830049618,
        "Mean Anomaly(deg)": 202.0088060432406,
        "RAAN(deg)": 54.994737207602036,
        "Satellite Name": "Constellation 1 254",
        "Satellite Number": 254,
        "Semi-Major Axis(m)": 7083131.272910544,
        "Time(s)": 93
    },
    {
        "Altitude(m)": 706743.4260731762,
        "Argument of Periapsis(deg)": 0.005635112587068129,
        "Eccentricity": 0.0,
        "Inclination(deg)": 45.0,
        "Latitude(deg)": -15.55057547759313,
        "Longitude(deg)": 150.70085886059638,
        "Mean Anomaly(deg)": 202.0695071834905,
        "RAAN(deg)": 54.99468061843647,
        "Satellite Name": "Constellation 1 254",
        "Satellite Number": 254,
        "Semi-Major Axis(m)": 7083131.272910544,
        "Time(s)": 94
    }
]